IRIDIUM 7 [-]           
1 24793U 97020B   23360.61503198  .00000579  00000+0  19643-3 0  9996
2 24793  86.3956  42.4931 0002436  93.3689 266.7786 14.35020265394635
IRIDIUM 5 [-]           
1 24795U 97020D   23360.42954880  .00005899  00000+0  58833-3 0  9999
2 24795  86.3929 330.1681 0123398 258.4787 100.2561 14.85784810405252
IRIDIUM 4 [-]           
1 24796U 97020E   23360.59335634  .00000591  00000+0  19718-3 0  9991
2 24796  86.3953  39.7378 0002224  96.2987 263.8463 14.35929199395159
IRIDIUM 914 [-]         
1 24836U 97030A   23360.60053582  .00000696  00000+0  21605-3 0  9992
2 24836  86.3930  49.9130 0002473 138.8280 221.3106 14.39759910529601
IRIDIUM 16 [-]          
1 24841U 97030F   23360.60007338  .00000715  00000+0  23181-3 0  9999
2 24841  86.4031  71.4527 0003681  64.4722 295.6856 14.37646398389598
IRIDIUM 911 [-]         
1 24842U 97030G   23360.58995711  .00000962  00000+0  26292-3 0  9998
2 24842  86.4456  70.7284 0016545  92.6462 267.6634 14.46209702397203
IRIDIUM 17 [-]          
1 24870U 97034B   23360.38996681  .00000836  00000+0  27724-3 0  9999
2 24870  86.3963 101.1991 0002026  43.5047 316.6309 14.36739691386197
IRIDIUM 920 [-]         
1 24871U 97034C   23360.29166115  .00000808  00000+0  24787-3 0  9996
2 24871  86.3973  81.7176 0013397  64.1630 296.0949 14.40463193388972
